INNOSAT3 (RS92S0)
1 64894U 25155U   26178.48657588  .00036381  00000-0  78210-3 0  9996
2 64894  97.4480 150.2336 0007807 127.8779 232.3176 15.44547960 82557
KNACKSAT-2
1 67683U 98067XZ  26178.46927797  .00048531  00000-0  57112-3 0  9995
2 67683  51.6278 242.7251 0008624 261.3976  98.6040 15.60876135 21886
