OBJECT_NAME,OBJECT_ID,EPOCH,MEAN_MOTION,ECCENTRICITY,INCLINATION,RA_OF_ASC_NODE,ARG_OF_PERICENTER,MEAN_ANOMALY,EPHEMERIS_TYPE,CLASSIFICATION_TYPE,NORAD_CAT_ID,ELEMENT_SET_NO,REV_AT_EPOCH,BSTAR,MEAN_MOTION_DOT,MEAN_MOTION_DDOT
INNOSAT 3 (RS92S0),2025-155U,2026-06-27T11:40:40.156032,15.44547960,.0007807,97.4480,150.2336,127.8779,232.3176,0,U,64894,999,8255,.7821E-3,.36381E-3,0
KNACKSAT-2,1998-067XZ,2026-06-27T11:15:45.616608,15.60876135,.0008624,51.6278,242.7251,261.3976,98.6040,0,U,67683,999,2188,.57112E-3,.48531E-3,0
